[{"OBJECT_NAME":"STARLINK-4605","OBJECT_ID":"2022-104AE","EPOCH":"2026-01-31T23:42:23.563872","MEAN_MOTION":15.08839454,"ECCENTRICITY":0.00013473,"INCLINATION":53.2182,"RA_OF_ASC_NODE":28.7565,"ARG_OF_PERICENTER":91.3243,"MEAN_ANOMALY":268.7904,"EPHEMERIS_TYPE":0,"CLASSIFICATION_TYPE":"U","NORAD_CAT_ID":53616,"ELEMENT_SET_NO":999,"REV_AT_EPOCH":19034,"BSTAR":0.00010551499,"MEAN_MOTION_DOT":1.392e-5,"MEAN_MOTION_DDOT":0},{"OBJECT_NAME":"STARLINK-4609","OBJECT_ID":"2022-104AH","EPOCH":"2026-01-31T06:06:32.903136","MEAN_MOTION":15.08837785,"ECCENTRICITY":0.0001407,"INCLINATION":53.2186,"RA_OF_ASC_NODE":42.1674,"ARG_OF_PERICENTER":85.4698,"MEAN_ANOMALY":274.6455,"EPHEMERIS_TYPE":0,"CLASSIFICATION_TYPE":"U","NORAD_CAT_ID":53619,"ELEMENT_SET_NO":999,"REV_AT_EPOCH":18998,"BSTAR":4.4566e-5,"MEAN_MOTION_DOT":4.21e-6,"MEAN_MOTION_DDOT":0},{"OBJECT_NAME":"STARLINK-4615","OBJECT_ID":"2022-104AJ","EPOCH":"2026-01-31T10:31:29.310816","MEAN_MOTION":15.08835323,"ECCENTRICITY":0.00015364,"INCLINATION":53.2175,"RA_OF_ASC_NODE":41.1826,"ARG_OF_PERICENTER":96.673,"MEAN_ANOMALY":263.4437,"EPHEMERIS_TYPE":0,"CLASSIFICATION_TYPE":"U","NORAD_CAT_ID":53620,"ELEMENT_SET_NO":999,"REV_AT_EPOCH":19012,"BSTAR":-6.1444461e-5,"MEAN_MOTION_DOT":-1.266e-5,"MEAN_MOTION_DDOT":0},{"OBJECT_NAME":"STARLINK-4608","OBJECT_ID":"2022-104AK","EPOCH":"2026-01-31T07:36:38.263392","MEAN_MOTION":15.08830911,"ECCENTRICITY":0.00014096,"INCLINATION":53.2195,"RA_OF_ASC_NODE":41.8469,"ARG_OF_PERICENTER":87.5594,"MEAN_ANOMALY":272.5559,"EPHEMERIS_TYPE":0,"CLASSIFICATION_TYPE":"U","NORAD_CAT_ID":53621,"ELEMENT_SET_NO":999,"REV_AT_EPOCH":18999,"BSTAR":1.5019859e-5,"MEAN_MOTION_DOT":-4.9e-7,"MEAN_MOTION_DDOT":0},{"OBJECT_NAME":"STARLINK-4568","OBJECT_ID":"2022-104AL","EPOCH":"2026-01-31T06:48:52.197408","MEAN_MOTION":15.08842765,"ECCENTRICITY":0.0001247,"INCLINATION":53.217,"RA_OF_ASC_NODE":41.6465,"ARG_OF_PERICENTER":77.2163,"MEAN_ANOMALY":282.8968,"EPHEMERIS_TYPE":0,"CLASSIFICATION_TYPE":"U","NORAD_CAT_ID":53622,"ELEMENT_SET_NO":999,"REV_AT_EPOCH":19010,"BSTAR":0.00035026,"MEAN_MOTION_DOT":5.291e-5,"MEAN_MOTION_DDOT":0},{"OBJECT_NAME":"STARLINK-4573","OBJECT_ID":"2022-104AM","EPOCH":"2026-01-31T16:58:19.993440","MEAN_MOTION":15.08838631,"ECCENTRICITY":0.00015646,"INCLINATION":53.2191,"RA_OF_ASC_NODE":40.0182,"ARG_OF_PERICENTER":95.5467,"MEAN_ANOMALY":264.5704,"EPHEMERIS_TYPE":0,"CLASSIFICATION_TYPE":"U","NORAD_CAT_ID":53623,"ELEMENT_SET_NO":999,"REV_AT_EPOCH":19016,"BSTAR":2.6466341e-5,"MEAN_MOTION_DOT":1.33e-6,"MEAN_MOTION_DDOT":0},{"OBJECT_NAME":"STARLINK-4596","OBJECT_ID":"2022-104AN","EPOCH":"2026-01-31T07:10:05.968416","MEAN_MOTION":15.08846689,"ECCENTRICITY":0.0001287,"INCLINATION":53.2176,"RA_OF_ASC_NODE":41.7333,"ARG_OF_PERICENTER":93.1088,"MEAN_ANOMALY":267.0052,"EPHEMERIS_TYPE":0,"CLASSIFICATION_TYPE":"U","NORAD_CAT_ID":53624,"ELEMENT_SET_NO":999,"REV_AT_EPOCH":19010,"BSTAR":2.552e-6,"MEAN_MOTION_DOT":-2.47e-6,"MEAN_MOTION_DDOT":0},{"OBJECT_NAME":"STARLINK-4554","OBJECT_ID":"2022-104AQ","EPOCH":"2026-01-31T18:01:52.425408","MEAN_MOTION":15.08852659,"ECCENTRICITY":0.00012181,"INCLINATION":53.2178,"RA_OF_ASC_NODE":39.5842,"ARG_OF_PERICENTER":109.7744,"MEAN_ANOMALY":250.3379,"EPHEMERIS_TYPE":0,"CLASSIFICATION_TYPE":"U","NORAD_CAT_ID":53626,"ELEMENT_SET_NO":999,"REV_AT_EPOCH":19018,"BSTAR":-3.0619753e-5,"MEAN_MOTION_DOT":-7.75e-6,"MEAN_MOTION_DDOT":0},{"OBJECT_NAME":"STARLINK-4595","OBJECT_ID":"2022-104AR","EPOCH":"2026-01-31T10:15:33.687936","MEAN_MOTION":15.08839429,"ECCENTRICITY":0.00013938,"INCLINATION":53.218,"RA_OF_ASC_NODE":41.1153,"ARG_OF_PERICENTER":80.6171,"MEAN_ANOMALY":279.4978,"EPHEMERIS_TYPE":0,"CLASSIFICATION_TYPE":"U","NORAD_CAT_ID":53627,"ELEMENT_SET_NO":999,"REV_AT_EPOCH":19013,"BSTAR":1.2916568e-5,"MEAN_MOTION_DOT":-8.2e-7,"MEAN_MOTION_DDOT":0},{"OBJECT_NAME":"STARLINK-4600","OBJECT_ID":"2022-104AS","EPOCH":"2026-01-31T08:18:59.092992","MEAN_MOTION":15.08809261,"ECCENTRICITY":0.00014978,"INCLINATION":53.2189,"RA_OF_ASC_NODE":41.3242,"ARG_OF_PERICENTER":89.1725,"MEAN_ANOMALY":270.9439,"EPHEMERIS_TYPE":0,"CLASSIFICATION_TYPE":"U","NORAD_CAT_ID":53628,"ELEMENT_SET_NO":999,"REV_AT_EPOCH":19012,"BSTAR":0.00031560943,"MEAN_MOTION_DOT":4.734e-5,"MEAN_MOTION_DDOT":0},{"OBJECT_NAME":"STARLINK-4602","OBJECT_ID":"2022-104AT","EPOCH":"2026-01-31T06:59:29.106240","MEAN_MOTION":15.08823658,"ECCENTRICITY":0.0001276,"INCLINATION":53.217,"RA_OF_ASC_NODE":41.688,"ARG_OF_PERICENTER":89.1652,"MEAN_ANOMALY":270.9487,"EPHEMERIS_TYPE":0,"CLASSIFICATION_TYPE":"U","NORAD_CAT_ID":53629,"ELEMENT_SET_NO":999,"REV_AT_EPOCH":19011,"BSTAR":-0.00016719,"MEAN_MOTION_DOT":-2.946e-5,"MEAN_MOTION_DDOT":0},{"OBJECT_NAME":"STARLINK-4598","OBJECT_ID":"2022-104AU","EPOCH":"2026-01-31T17:22:15.718656","MEAN_MOTION":15.08842397,"ECCENTRICITY":0.00013737,"INCLINATION":53.218,"RA_OF_ASC_NODE":30.1403,"ARG_OF_PERICENTER":113.3466,"MEAN_ANOMALY":246.7671,"EPHEMERIS_TYPE":0,"CLASSIFICATION_TYPE":"U","NORAD_CAT_ID":53630,"ELEMENT_SET_NO":999,"REV_AT_EPOCH":19048,"BSTAR":8.4608568e-5,"MEAN_MOTION_DOT":1.059e-5,"MEAN_MOTION_DDOT":0},{"OBJECT_NAME":"STARLINK-4599","OBJECT_ID":"2022-104AV","EPOCH":"2026-02-01T00:07:30.399744","MEAN_MOTION":15.08840307,"ECCENTRICITY":0.00013513,"INCLINATION":53.2187,"RA_OF_ASC_NODE":38.3303,"ARG_OF_PERICENTER":90.8816,"MEAN_ANOMALY":269.2331,"EPHEMERIS_TYPE":0,"CLASSIFICATION_TYPE":"U","NORAD_CAT_ID":53631,"ELEMENT_SET_NO":999,"REV_AT_EPOCH":19022,"BSTAR":5.561636e-5,"MEAN_MOTION_DOT":5.97e-6,"MEAN_MOTION_DDOT":0},{"OBJECT_NAME":"STARLINK-4606","OBJECT_ID":"2022-104AW","EPOCH":"2026-01-31T09:13:20.578080","MEAN_MOTION":15.08840771,"ECCENTRICITY":0.00012557,"INCLINATION":53.2185,"RA_OF_ASC_NODE":31.5749,"ARG_OF_PERICENTER":90.4456,"MEAN_ANOMALY":269.668,"EPHEMERIS_TYPE":0,"CLASSIFICATION_TYPE":"U","NORAD_CAT_ID":53632,"ELEMENT_SET_NO":999,"REV_AT_EPOCH":19059,"BSTAR":7.5319505e-5,"MEAN_MOTION_DOT":9.11e-6,"MEAN_MOTION_DDOT":0},{"OBJECT_NAME":"STARLINK-4593","OBJECT_ID":"2022-104AX","EPOCH":"2026-01-31T09:18:39.235968","MEAN_MOTION":15.08829017,"ECCENTRICITY":0.00015818,"INCLINATION":53.2185,"RA_OF_ASC_NODE":31.5974,"ARG_OF_PERICENTER":97.9477,"MEAN_ANOMALY":262.1695,"EPHEMERIS_TYPE":0,"CLASSIFICATION_TYPE":"U","NORAD_CAT_ID":53633,"ELEMENT_SET_NO":999,"REV_AT_EPOCH":19026,"BSTAR":0.0002588541,"MEAN_MOTION_DOT":3.833e-5,"MEAN_MOTION_DDOT":0},{"OBJECT_NAME":"STARLINK-4592","OBJECT_ID":"2022-104AY","EPOCH":"2026-01-31T09:02:44.214432","MEAN_MOTION":15.0883677,"ECCENTRICITY":0.0001383,"INCLINATION":53.2191,"RA_OF_ASC_NODE":31.5283,"ARG_OF_PERICENTER":91.5956,"MEAN_ANOMALY":268.5194,"EPHEMERIS_TYPE":0,"CLASSIFICATION_TYPE":"U","NORAD_CAT_ID":53634,"ELEMENT_SET_NO":999,"REV_AT_EPOCH":19059,"BSTAR":6.3953e-5,"MEAN_MOTION_DOT":7.3e-6,"MEAN_MOTION_DDOT":0}]
