STARLINK-4605           
1 53616U 22104AE  26031.98777273  .00001392  00000+0  10551-3 0  9991
2 53616  53.2182  28.7565 0001347  91.3243 268.7904 15.08839454190344
STARLINK-4609           
1 53619U 22104AH  26031.25454749  .00000421  00000+0  44566-4 0  9990
2 53619  53.2186  42.1674 0001407  85.4698 274.6455 15.08837785189987
STARLINK-4615           
1 53620U 22104AJ  26031.43853369 -.00001266  00000+0 -61444-4 0  9997
2 53620  53.2175  41.1826 0001536  96.6730 263.4437 15.08835323190129
STARLINK-4608           
1 53621U 22104AK  26031.31710953 -.00000049  00000+0  15020-4 0  9992
2 53621  53.2195  41.8469 0001409  87.5594 272.5559 15.08830911189995
STARLINK-4568           
1 53622U 22104AL  26031.28393747  .00005291  00000+0  35026-3 0  9997
2 53622  53.2170  41.6465 0001247  77.2163 282.8968 15.08842765190104
STARLINK-4573           
1 53623U 22104AM  26031.70717585  .00000133  00000+0  26466-4 0  9994
2 53623  53.2191  40.0182 0001564  95.5467 264.5704 15.08838631190167
STARLINK-4596           
1 53624U 22104AN  26031.29868019 -.00000247  00000+0  25520-5 0  9996
2 53624  53.2176  41.7333 0001287  93.1088 267.0052 15.08846689190102
STARLINK-4554           
1 53626U 22104AQ  26031.75130122 -.00000775  00000+0 -30620-4 0  9999
2 53626  53.2178  39.5842 0001218 109.7744 250.3379 15.08852659190182
STARLINK-4595           
1 53627U 22104AR  26031.42747324 -.00000082  00000+0  12917-4 0  9991
2 53627  53.2180  41.1153 0001393  80.6171 279.4978 15.08839429190137
STARLINK-4600           
1 53628U 22104AS  26031.34651728  .00004734  00000+0  31561-3 0  9997
2 53628  53.2189  41.3242 0001497  89.1725 270.9439 15.08809261190120
STARLINK-4602           
1 53629U 22104AT  26031.29130910 -.00002946  00000+0 -16719-3 0  9990
2 53629  53.2170  41.6880 0001276  89.1652 270.9487 15.08823658190114
STARLINK-4598           
1 53630U 22104AU  26031.72379304  .00001059  00000+0  84609-4 0  9998
2 53630  53.2180  30.1403 0001373 113.3466 246.7671 15.08842397190489
STARLINK-4599           
1 53631U 22104AV  26032.00521296  .00000597  00000+0  55616-4 0  9992
2 53631  53.2187  38.3303 0001351  90.8816 269.2331 15.08840307190224
STARLINK-4606           
1 53632U 22104AW  26031.38426595  .00000911  00000+0  75320-4 0  9993
2 53632  53.2185  31.5749 0001255  90.4456 269.6680 15.08840771190597
STARLINK-4593           
1 53633U 22104AX  26031.38795412  .00003833  00000+0  25885-3 0  9997
2 53633  53.2185  31.5974 0001581  97.9477 262.1695 15.08829017190263
STARLINK-4592           
1 53634U 22104AY  26031.37690063  .00000730  00000+0  63953-4 0  9995
2 53634  53.2191  31.5283 0001383  91.5956 268.5194 15.08836770190590
